STARLINK-35810          
1 66575U 25268U   25340.58335648 -.01999977  00000+0 -25259-1 0  9994
2 66575  42.9998 157.2486 0001514 258.1691 333.8752 15.62107609  3683
STARLINK-35814          
1 66576U 25268V   25340.58335648 -.01994852  00000+0 -25191-1 0  9997
2 66576  42.9998 157.2439 0001415 255.1686 338.7965 15.62103117  3683
STARLINK-35815          
1 66577U 25268W   25340.58335648 -.01996697  00000+0 -25216-1 0  9995
2 66577  42.9996 157.2392 0001490 256.4326 339.4495 15.62103909  3683
STARLINK-35743          
1 66578U 25268X   25340.58335648 -.01995989  00000+0 -25205-1 0  9997
2 66578  42.9996 157.2343 0001444 255.8923 341.9058 15.62104372  3683
STARLINK-35868          
1 66579U 25268Y   25340.58335648 -.01999201  00000+0 -25248-1 0  9996
2 66579  42.9997 157.2291 0001542 258.6294 341.0845 15.62106510  3689
STARLINK-35872          
1 66580U 25268Z   25340.58335648 -.01998914  00000+0 -25245-1 0  9995
2 66580  42.9999 157.2252 0001419 258.0130 343.6185 15.62106655  3681
STARLINK-35744          
1 66581U 25268AA  25340.58335648 -.01996533  00000+0 -25211-1 0  9994
2 66581  42.9998 157.2196 0001533 259.4380 344.1097 15.62105341  3631
STARLINK-35746          
1 66582U 25268AB  25340.58335648 -.01999438  00000+0 -25253-1 0  9998
2 66582  42.9993 157.2146 0001464 259.7665 345.7001 15.62106265  3687
STARLINK-35941          
1 66583U 25268AC  25340.58335648 -.01995918  00000+0 -25203-1 0  9993
2 66583  42.9993 157.2099 0001515 256.6938 350.6887 15.62104737  3680
STARLINK-35939          
1 66584U 25268AD  25340.58335648 -.01995566  00000+0 -25197-1 0  9995
2 66584  42.9993 157.2055 0001589 258.7349 350.5639 15.62104734  3684
STARLINK-35963          
1 66585U 25268AE  25340.58335648 -.01995477  00000+0 -25199-1 0  9999
2 66585  42.9995 157.2006 0001506 258.0582 353.1622 15.62102908  3686
TJS-21                  
1 66586U 25269A   25339.24566365  .00001125  00000+0 -17799-1 0  9997
2 66586  63.2734 163.1383 6805128 269.8052  18.6619  2.00559462   290
